{
  "norad_id": 46066,
  "name": "STARLINK-1525",
  "history": [
    {
      "epoch": "2026-03-28T21:45:06.238944Z",
      "apogee_km": 475.87416305490115,
      "perigee_km": 473.77167495175036,
      "latitude_deg": 5.873171584645751e-06,
      "longitude_deg": -144.76283907002787,
      "height_km": 476.4710998491748,
      "semi_major_axis_km": 6852.959919003325,
      "eccentricity": 0.0001534,
      "inclination_deg": 53.0572,
      "raan_deg": 7.8332,
      "arg_perigee_deg": 136.3651,
      "mean_anomaly_deg": 223.747,
      "mean_motion_rev_day": 15.30331347
    },
    {
      "epoch": "2026-03-29T04:01:16.428000Z",
      "apogee_km": 475.7664368165879,
      "perigee_km": 473.57079789678573,
      "latitude_deg": -3.655284998219548e-05,
      "longitude_deg": 119.72019576024984,
      "height_km": 476.40309584471146,
      "semi_major_axis_km": 6852.8056173566865,
      "eccentricity": 0.0001602,
      "inclination_deg": 53.0574,
      "raan_deg": 6.6162,
      "arg_perigee_deg": 140.4946,
      "mean_anomaly_deg": 219.617,
      "mean_motion_rev_day": 15.30383034
    },
    {
      "epoch": "2026-03-30T05:05:49.522272Z",
      "apogee_km": 475.1676176298879,
      "perigee_km": 472.99313496769355,
      "latitude_deg": -6.655392053211638e-05,
      "longitude_deg": 97.68555223654263,
      "height_km": 475.8837530576293,
      "semi_major_axis_km": 6852.21737629879,
      "eccentricity": 0.00015867,
      "inclination_deg": 53.0577,
      "raan_deg": 1.7493,
      "arg_perigee_deg": 147.3668,
      "mean_anomaly_deg": 212.7429,
      "mean_motion_rev_day": 15.30580106
    },
    {
      "epoch": "2026-03-30T11:21:55.984896Z",
      "apogee_km": 475.00101148384056,
      "perigee_km": 472.85741109030187,
      "latitude_deg": -4.308733875629552e-05,
      "longitude_deg": 2.1849059069713976,
      "height_km": 475.7342610900959,
      "semi_major_axis_km": 6852.066211287071,
      "eccentricity": 0.00015642,
      "inclination_deg": 53.0577,
      "raan_deg": 0.533,
      "arg_perigee_deg": 148.844,
      "mean_anomaly_deg": 211.2652,
      "mean_motion_rev_day": 15.30630756
    },
    {
      "epoch": "2026-03-30T22:20:05.732160Z",
      "apogee_km": 474.7439879840167,
      "perigee_km": 472.63773609922464,
      "latitude_deg": 2.5019009709082587e-05,
      "longitude_deg": -164.93565242594164,
      "height_km": 475.50492941777065,
      "semi_major_axis_km": 6851.82786204162,
      "eccentricity": 0.0001537,
      "inclination_deg": 53.0576,
      "raan_deg": 358.4035,
      "arg_perigee_deg": 151.5693,
      "mean_anomaly_deg": 208.5391,
      "mean_motion_rev_day": 15.30710624
    },
    {
      "epoch": "2026-03-31T20:16:19.463808Z",
      "apogee_km": 474.32795399607494,
      "perigee_km": 472.2108694148583,
      "latitude_deg": -2.9645799906450937e-05,
      "longitude_deg": -139.1531338820645,
      "height_km": 475.14108175980266,
      "semi_major_axis_km": 6851.406411705466,
      "eccentricity": 0.0001545,
      "inclination_deg": 53.057,
      "raan_deg": 354.1442,
      "arg_perigee_deg": 158.298,
      "mean_anomaly_deg": 201.8085,
      "mean_motion_rev_day": 15.30851864
    },
    {
      "epoch": "2026-04-01T19:46:26.295744Z",
      "apogee_km": 473.9107307129925,
      "perigee_km": 471.77185528991686,
      "latitude_deg": -2.3647680003541478e-05,
      "longitude_deg": -137.2108832075787,
      "height_km": 474.7672373079186,
      "semi_major_axis_km": 6850.978293001454,
      "eccentricity": 0.0001561,
      "inclination_deg": 53.0561,
      "raan_deg": 349.5801,
      "arg_perigee_deg": 165.9814,
      "mean_anomaly_deg": 194.1229,
      "mean_motion_rev_day": 15.30995361
    }
  ]
}